start=new Date('2022-06-08T00:00:00.000Z').valueOf();
sats=[{"SITE":"AFETR","OBJECT_TYPE":"PAYLOAD","OBJECT_NAME":"STARLINK-2653","EPOCH":"2022-06-07T15:57:33.954048","RA_OF_ASC_NODE":"146.3917","MEAN_ELEMENT_THEORY":"SGP4","FILE":"3485136","GP_ID":"205595759","MEAN_MOTION_DDOT":"0.0000000000000","OBJECT_ID":"2021-044AD","RCS_SIZE":"LARGE","TIME_SYSTEM":"UTC","ECCENTRICITY":"0.00021500","ELEMENT_SET_NO":"999","DECAY_DATE":null,"PERIOD":"95.593","NORAD_CAT_ID":"48665","TLE_LINE1":"1 48665U 21044AD  22158.66497632  .00000948  00000-0  82553-4 0  9999","ARG_OF_PERICENTER":"50.8867","CENTER_NAME":"EARTH","TLE_LINE2":"2 48665  53.0519 146.3917 0002150  50.8867 309.2313 15.06393905 57203","EPHEMERIS_TYPE":"0","LAUNCH_DATE":"2021-05-26","SEMIMAJOR_AXIS":"6925.367","INCLINATION":"53.0519","APOAPSIS":"548.721","BSTAR":"0.00008255300000","CLASSIFICATION_TYPE":"U","MEAN_ANOMALY":"309.2313","REV_AT_EPOCH":"5720","MEAN_MOTION_DOT":"0.00000948","PERIAPSIS":"545.743","REF_FRAME":"TEME","COUNTRY_CODE":"US","MEAN_MOTION":"15.06393905"},{"BSTAR":"0.00217420000000","CLASSIFICATION_TYPE":"U","MEAN_ANOMALY":"310.9712","REV_AT_EPOCH":"5809","MEAN_MOTION_DOT":"0.00032119","APOAPSIS":"548.910","MEAN_MOTION":"15.06248175","REF_FRAME":"TEME","COUNTRY_CODE":"US","PERIAPSIS":"546.448","CENTER_NAME":"EARTH","TLE_LINE1":"1 48666U 21044AE  22158.67707213  .00032119  00000-0  21742-2 0  9996","ARG_OF_PERICENTER":"49.1430","PERIOD":"95.602","NORAD_CAT_ID":"48666","DECAY_DATE":null,"INCLINATION":"53.0549","TLE_LINE2":"2 48666  53.0549 146.8088 0001778  49.1430 310.9712 15.06248175 58091","LAUNCH_DATE":"2021-05-26","SEMIMAJOR_AXIS":"6925.814","EPHEMERIS_TYPE":"0","RCS_SIZE":"LARGE","OBJECT_ID":"2021-044AE","MEAN_MOTION_DDOT":"0.0000000000000","ECCENTRICITY":"0.00017780","ELEMENT_SET_NO":"999","TIME_SYSTEM":"UTC","RA_OF_ASC_NODE":"146.8088","MEAN_ELEMENT_THEORY":"SGP4","EPOCH":"2022-06-07T16:14:59.032032","OBJECT_TYPE":"PAYLOAD","SITE":"AFETR","OBJECT_NAME":"STARLINK-2666","GP_ID":"205571059","FILE":"3485042"},{"REF_FRAME":"TEME","COUNTRY_CODE":"US","MEAN_MOTION":"15.06392760","PERIAPSIS":"545.896","APOAPSIS":"548.576","BSTAR":"0.00008740400000","MEAN_ANOMALY":"304.0604","CLASSIFICATION_TYPE":"U","MEAN_MOTION_DOT":"0.00001020","REV_AT_EPOCH":"5717","INCLINATION":"53.0556","TLE_LINE2":"2 48667  53.0556 147.3675 0001935  56.0569 304.0604 15.06392760 57175","LAUNCH_DATE":"2021-05-26","SEMIMAJOR_AXIS":"6925.371","EPHEMERIS_TYPE":"0","TLE_LINE1":"1 48667U 21044AF  22158.44846360  .00001020  00000-0  87404-4 0  9995","ARG_OF_PERICENTER":"56.0569","CENTER_NAME":"EARTH","DECAY_DATE":null,"PERIOD":"95.593","NORAD_CAT_ID":"48667","ELEMENT_SET_NO":"999","ECCENTRICITY":"0.00019350","TIME_SYSTEM":"UTC","RCS_SIZE":"LARGE","MEAN_MOTION_DDOT":"0.0000000000000","OBJECT_ID":"2021-044AF","GP_ID":"205565255","FILE":"3484919","EPOCH":"2022-06-07T10:45:47.255040","RA_OF_ASC_NODE":"147.3675","MEAN_ELEMENT_THEORY":"SGP4","SITE":"AFETR","OBJECT_TYPE":"PAYLOAD","OBJECT_NAME":"STARLINK-2735"},{"APOAPSIS":"548.523","MEAN_MOTION_DOT":"-0.00000819","REV_AT_EPOCH":"5716","CLASSIFICATION_TYPE":"U","BSTAR":"-0.00003606800000","MEAN_ANOMALY":"301.6942","PERIAPSIS":"545.927","COUNTRY_CODE":"US","REF_FRAME":"TEME","MEAN_MOTION":"15.06396172","DECAY_DATE":null,"NORAD_CAT_ID":"48668","PERIOD":"95.592","ARG_OF_PERICENTER":"58.4230","TLE_LINE1":"1 48668U 21044AG  22158.37841682 -.00000819  00000-0 -36068-4 0  9997","CENTER_NAME":"EARTH","LAUNCH_DATE":"2021-05-26","SEMIMAJOR_AXIS":"6925.360","EPHEMERIS_TYPE":"0","TLE_LINE2":"2 48668  53.0534 147.6782 0001874  58.4230 301.6942 15.06396172 57165","INCLINATION":"53.0534","MEAN_MOTION_DDOT":"0.0000000000000","OBJECT_ID":"2021-044AG","RCS_SIZE":"LARGE","TIME_SYSTEM":"UTC","ELEMENT_SET_NO":"999","ECCENTRICITY":"0.00018740","OBJECT_NAME":"STARLINK-2738","OBJECT_TYPE":"PAYLOAD","SITE":"AFETR","EPOCH":"2022-06-07T09:04:55.213248","MEAN_ELEMENT_THEORY":"SGP4","RA_OF_ASC_NODE":"147.6782","FILE":"3484919","GP_ID":"205565505"},{"TLE_LINE2":"2 48669  53.0539 147.3796 0001872  60.2527 299.8648 15.06402286 57166","LAUNCH_DATE":"2021-05-26","SEMIMAJOR_AXIS":"6925.342","EPHEMERIS_TYPE":"0","INCLINATION":"53.0539","PERIOD":"95.592","NORAD_CAT_ID":"48669","DECAY_DATE":null,"CENTER_NAME":"EARTH","TLE_LINE1":"1 48669U 21044AH  22158.44107751  .00000880  00000-0  77973-4 0  9994","ARG_OF_PERICENTER":"60.2527","PERIAPSIS":"545.910","MEAN_MOTION":"15.06402286","REF_FRAME":"TEME","COUNTRY_CODE":"US","BSTAR":"0.00007797300000","MEAN_ANOMALY":"299.8648","CLASSIFICATION_TYPE":"U","MEAN_MOTION_DOT":"0.00000880","REV_AT_EPOCH":"5716","APOAPSIS":"548.503","FILE":"3484919","GP_ID":"205564257","SITE":"AFETR","OBJECT_TYPE":"PAYLOAD","OBJECT_NAME":"STARLINK-2707","RA_OF_ASC_NODE":"147.3796","MEAN_ELEMENT_THEORY":"SGP4","EPOCH":"2022-06-07T10:35:09.096864","TIME_SYSTEM":"UTC","ELEMENT_SET_NO":"999","ECCENTRICITY":"0.00018720","OBJECT_ID":"2021-044AH","MEAN_MOTION_DDOT":"0.0000000000000","RCS_SIZE":"LARGE"},{"CENTER_NAME":"EARTH","ARG_OF_PERICENTER":"59.9601","TLE_LINE1":"1 48670U 21044AJ  22158.70277531  .00000048  00000-0  22141-4 0  9992","NORAD_CAT_ID":"48670","PERIOD":"95.592","DECAY_DATE":null,"INCLINATION":"53.0540","LAUNCH_DATE":"2021-05-26","SEMIMAJOR_AXIS":"6925.343","EPHEMERIS_TYPE":"0","TLE_LINE2":"2 48670  53.0540 146.2036 0001837  59.9601 300.1570 15.06401656 57209","MEAN_MOTION_DOT":"0.00000048","REV_AT_EPOCH":"5720","BSTAR":"0.00002214100000","MEAN_ANOMALY":"300.1570","CLASSIFICATION_TYPE":"U","APOAPSIS":"548.481","MEAN_MOTION":"15.06401656","COUNTRY_CODE":"US","REF_FRAME":"TEME","PERIAPSIS":"545.936","MEAN_ELEMENT_THEORY":"SGP4","RA_OF_ASC_NODE":"146.2036","EPOCH":"2022-06-07T16:51:59.786784","OBJECT_NAME":"STARLINK-2763","OBJECT_TYPE":"PAYLOAD","SITE":"AFETR","GP_ID":"205594015","FILE":"3485136","RCS_SIZE":"LARGE","OBJECT_ID":"2021-044AJ","MEAN_MOTION_DDOT":"0.0000000000000","ELEMENT_SET_NO":"999","ECCENTRICITY":"0.00018370","TIME_SYSTEM":"UTC"},{"MEAN_MOTION_DDOT":"0.0000000000000","OBJECT_ID":"2021-044AK","RCS_SIZE":"LARGE","TIME_SYSTEM":"UTC","ECCENTRICITY":"0.00018570","ELEMENT_SET_NO":"999","OBJECT_NAME":"STARLINK-2745","SITE":"AFETR","OBJECT_TYPE":"PAYLOAD","EPOCH":"2022-06-07T16:46:41.858112","MEAN_ELEMENT_THEORY":"SGP4","RA_OF_ASC_NODE":"146.2416","FILE":"3485136","GP_ID":"205594265","APOAPSIS":"548.498","MEAN_MOTION_DOT":"-0.00001028","REV_AT_EPOCH":"5720","BSTAR":"-0.00005009200000","CLASSIFICATION_TYPE":"U","MEAN_ANOMALY":"303.2456","PERIAPSIS":"545.926","COUNTRY_CODE":"US","REF_FRAME":"TEME","MEAN_MOTION":"15.06400490","DECAY_DATE":null,"NORAD_CAT_ID":"48671","PERIOD":"95.592","TLE_LINE1":"1 48671U 21044AK  22158.69909558 -.00001028  00000-0 -50092-4 0  9999","ARG_OF_PERICENTER":"56.8711","CENTER_NAME":"EARTH","LAUNCH_DATE":"2021-05-26","SEMIMAJOR_AXIS":"6925.347","EPHEMERIS_TYPE":"0","TLE_LINE2":"2 48671  53.0540 146.2416 0001857  56.8711 303.2456 15.06400490 57204","INCLINATION":"53.0540"},{"PERIAPSIS":"546.032","COUNTRY_CODE":"US","REF_FRAME":"TEME","MEAN_MOTION":"15.06392591","APOAPSIS":"548.441","MEAN_MOTION_DOT":"0.00000939","REV_AT_EPOCH":"5720","MEAN_ANOMALY":"300.6811","BSTAR":"0.00008194800000","CLASSIFICATION_TYPE":"U","EPHEMERIS_TYPE":"0","LAUNCH_DATE":"2021-05-26","SEMIMAJOR_AXIS":"6925.371","TLE_LINE2":"2 48672  53.0554 146.2653 0001739  59.4349 300.6811 15.06392591 57206","INCLINATION":"53.0554","DECAY_DATE":null,"NORAD_CAT_ID":"48672","PERIOD":"95.593","TLE_LINE1":"1 48672U 21044AL  22158.69541812  .00000939  00000-0  81948-4 0  9997","ARG_OF_PERICENTER":"59.4349","CENTER_NAME":"EARTH","TIME_SYSTEM":"UTC","ELEMENT_SET_NO":"999","ECCENTRICITY":"0.00017390","MEAN_MOTION_DDOT":"0.0000000000000","OBJECT_ID":"2021-044AL","RCS_SIZE":"LARGE","FILE":"3485136","GP_ID":"205595014","OBJECT_NAME":"STARLINK-2705","OBJECT_TYPE":"PAYLOAD","SITE":"AFETR","EPOCH":"2022-06-07T16:41:24.125568","MEAN_ELEMENT_THEORY":"SGP4","RA_OF_ASC_NODE":"146.2653"},{"BSTAR":"0.00006953000000","CLASSIFICATION_TYPE":"U","MEAN_ANOMALY":"303.7538","REV_AT_EPOCH":"5720","MEAN_MOTION_DOT":"0.00000754","APOAPSIS":"548.559","PERIAPSIS":"545.861","MEAN_MOTION":"15.06401164","REF_FRAME":"TEME","COUNTRY_CODE":"US","PERIOD":"95.592","NORAD_CAT_ID":"48673","DECAY_DATE":null,"CENTER_NAME":"EARTH","TLE_LINE1":"1 48673U 21044AM  22158.69172006  .00000754  00000-0  69530-4 0  9991","ARG_OF_PERICENTER":"56.3637","TLE_LINE2":"2 48673  53.0554 146.2703 0001948  56.3637 303.7538 15.06401164 57208","LAUNCH_DATE":"2021-05-26","SEMIMAJOR_AXIS":"6925.345","EPHEMERIS_TYPE":"0","INCLINATION":"53.0554","OBJECT_ID":"2021-044AM","MEAN_MOTION_DDOT":"0.0000000000000","RCS_SIZE":"LARGE","TIME_SYSTEM":"UTC","ECCENTRICITY":"0.00019480","ELEMENT_SET_NO":"999","OBJECT_TYPE":"PAYLOAD","SITE":"AFETR","OBJECT_NAME":"STARLINK-2711","RA_OF_ASC_NODE":"146.2703","MEAN_ELEMENT_THEORY":"SGP4","EPOCH":"2022-06-07T16:36:04.613184","FILE":"3485136","GP_ID":"205595760"},{"EPOCH":"2022-06-07T16:29:24.853344","MEAN_ELEMENT_THEORY":"SGP4","RA_OF_ASC_NODE":"146.2829","OBJECT_NAME":"STARLINK-2712","OBJECT_TYPE":"PAYLOAD","SITE":"AFETR","GP_ID":"205594516","FILE":"3485136","RCS_SIZE":"LARGE","MEAN_MOTION_DDOT":"0.0000000000000","OBJECT_ID":"2021-044AN","ECCENTRICITY":"0.00016580","ELEMENT_SET_NO":"999","TIME_SYSTEM":"UTC","ARG_OF_PERICENTER":"56.5357","TLE_LINE1":"1 48674U 21044AN  22158.68709321 -.00000896  00000-0 -41260-4 0  9996","CENTER_NAME":"EARTH","DECAY_DATE":null,"NORAD_CAT_ID":"48674","PERIOD":"95.592","INCLINATION":"53.0548","LAUNCH_DATE":"2021-05-26","EPHEMERIS_TYPE":"0","SEMIMAJOR_AXIS":"6925.364","TLE_LINE2":"2 48674  53.0548 146.2829 0001658  56.5357 303.5790 15.06394804 57200","APOAPSIS":"548.378","MEAN_MOTION_DOT":"-0.00000896","REV_AT_EPOCH":"5720","MEAN_ANOMALY":"303.5790","BSTAR":"-0.00004126000000","CLASSIFICATION_TYPE":"U","COUNTRY_CODE":"US","REF_FRAME":"TEME","MEAN_MOTION":"15.06394804","PERIAPSIS":"546.081"}];
